1 35846U 97051SW  26114.65910596  .00001117  00000+0  32228-3 0  9992
2 35846  86.3788   2.1031 0020074  93.5701 266.7796 14.43721160732467
